[{"OBJECT_NAME":"STARLINK-4648","OBJECT_ID":"2022-104Q","EPOCH":"2026-03-09T17:46:14.002176","MEAN_MOTION":15.08840128,"ECCENTRICITY":0.0001195,"INCLINATION":53.2169,"RA_OF_ASC_NODE":238.8318,"ARG_OF_PERICENTER":86.9618,"MEAN_ANOMALY":273.1511,"EPHEMERIS_TYPE":0,"CLASSIFICATION_TYPE":"U","NORAD_CAT_ID":53602,"ELEMENT_SET_NO":999,"REV_AT_EPOCH":19569,"BSTAR":-9.410075e-6,"MEAN_MOTION_DOT":-4.38e-6,"MEAN_MOTION_DDOT":0},{"OBJECT_NAME":"STRIX-2","OBJECT_ID":"2024-248A","EPOCH":"2026-03-09T23:00:54.819648","MEAN_MOTION":15.07630986,"ECCENTRICITY":0.00151844,"INCLINATION":97.6197,"RA_OF_ASC_NODE":25.3276,"ARG_OF_PERICENTER":319.5195,"MEAN_ANOMALY":40.4902,"EPHEMERIS_TYPE":0,"CLASSIFICATION_TYPE":"U","NORAD_CAT_ID":62406,"ELEMENT_SET_NO":999,"REV_AT_EPOCH":6663,"BSTAR":0.00066021351,"MEAN_MOTION_DOT":0.00010025,"MEAN_MOTION_DDOT":0}]
